KUIPER-00152            
1 65772U 25217L   25288.85856250  .00036145  00000+0  98556-3 0  9992
2 65772  51.8739 344.0692 0002722  72.2039 287.9244 15.37111159  3144
KUIPER-00153            
1 65773U 25217M   25288.62728631  .00019738  00000+0  58302-3 0  9993
2 65773  51.8655 345.5113 0008279 176.3105 183.7943 15.34924198  3106
KUIPER-00155            
1 65774U 25217N   25288.55244804  .00045377  00000+0  12899-2 0  9999
2 65774  51.8687 345.7669 0005314 161.3825 198.7356 15.35700386  3094
KUIPER-00156            
1 65775U 25217P   25288.86261095  .00033485  00000+0  92128-3 0  9996
2 65775  51.8743 344.0980 0002506 108.0345 252.0915 15.36869167  3146
KUIPER-00158            
1 65776U 25217Q   25288.67973407  .00020675  00000+0  59142-3 0  9999
2 65776  51.8723 345.1219 0005026 157.0820 203.0391 15.35919189  3114
KUIPER-00163            
1 65777U 25217R   25288.62542091  .00019411  00000+0  57077-3 0  9997
2 65777  51.8643 345.4979 0007795 177.2540 182.8489 15.35081971  3100
KUIPER-00165            
1 65778U 25217S   25288.67426641  .00023399  00000+0  65898-3 0  9995
2 65778  51.8726 345.0868 0004105 134.0464 226.0861 15.36333112  3118
KUIPER-00166            
1 65779U 25217T   25288.86539536  .00036571  00000+0  10116-2 0  9993
2 65779  51.8733 344.1182 0003371 113.5908 246.5433 15.36658150  3142
