<?xml version="1.0" encoding="UTF-8"?>
<ndm xmlns:xsi="http://www.w3.org/2001/XMLSchema-instance" xsi:noNamespaceSchemaLocation="https://sanaregistry.org/r/ndmxml_unqualified/ndmxml-2.0.0-master-2.0.xsd">
<omm id="CCSDS_OMM_VERS" version="2.0">
<header><CREATION_DATE/><ORIGINATOR/></header><body><segment><metadata><OBJECT_NAME>KUIPER-00152</OBJECT_NAME><OBJECT_ID>2025-217L</OBJECT_ID><CENTER_NAME>EARTH</CENTER_NAME><REF_FRAME>TEME</REF_FRAME><TIME_SYSTEM>UTC</TIME_SYSTEM><MEAN_ELEMENT_THEORY>SGP4</MEAN_ELEMENT_THEORY></metadata><data><meanElements><EPOCH>2025-10-15T20:36:19.800000</EPOCH><MEAN_MOTION>15.37111159</MEAN_MOTION><ECCENTRICITY>.0002722</ECCENTRICITY><INCLINATION>51.8739</INCLINATION><RA_OF_ASC_NODE>344.0692</RA_OF_ASC_NODE><ARG_OF_PERICENTER>72.2039</ARG_OF_PERICENTER><MEAN_ANOMALY>287.9244</MEAN_ANOMALY></meanElements><tleParameters><EPHEMERIS_TYPE>0</EPHEMERIS_TYPE><CLASSIFICATION_TYPE>U</CLASSIFICATION_TYPE><NORAD_CAT_ID>65772</NORAD_CAT_ID><ELEMENT_SET_NO>999</ELEMENT_SET_NO><REV_AT_EPOCH>314</REV_AT_EPOCH><BSTAR>.98556E-3</BSTAR><MEAN_MOTION_DOT>.36145E-3</MEAN_MOTION_DOT><MEAN_MOTION_DDOT>0</MEAN_MOTION_DDOT></tleParameters></data></segment></body></omm>
<omm id="CCSDS_OMM_VERS" version="2.0">
<header><CREATION_DATE/><ORIGINATOR/></header><body><segment><metadata><OBJECT_NAME>KUIPER-00153</OBJECT_NAME><OBJECT_ID>2025-217M</OBJECT_ID><CENTER_NAME>EARTH</CENTER_NAME><REF_FRAME>TEME</REF_FRAME><TIME_SYSTEM>UTC</TIME_SYSTEM><MEAN_ELEMENT_THEORY>SGP4</MEAN_ELEMENT_THEORY></metadata><data><meanElements><EPOCH>2025-10-15T15:03:17.537184</EPOCH><MEAN_MOTION>15.34924198</MEAN_MOTION><ECCENTRICITY>.0008279</ECCENTRICITY><INCLINATION>51.8655</INCLINATION><RA_OF_ASC_NODE>345.5113</RA_OF_ASC_NODE><ARG_OF_PERICENTER>176.3105</ARG_OF_PERICENTER><MEAN_ANOMALY>183.7943</MEAN_ANOMALY></meanElements><tleParameters><EPHEMERIS_TYPE>0</EPHEMERIS_TYPE><CLASSIFICATION_TYPE>U</CLASSIFICATION_TYPE><NORAD_CAT_ID>65773</NORAD_CAT_ID><ELEMENT_SET_NO>999</ELEMENT_SET_NO><REV_AT_EPOCH>310</REV_AT_EPOCH><BSTAR>.58302E-3</BSTAR><MEAN_MOTION_DOT>.19738E-3</MEAN_MOTION_DOT><MEAN_MOTION_DDOT>0</MEAN_MOTION_DDOT></tleParameters></data></segment></body></omm>
<omm id="CCSDS_OMM_VERS" version="2.0">
<header><CREATION_DATE/><ORIGINATOR/></header><body><segment><metadata><OBJECT_NAME>KUIPER-00155</OBJECT_NAME><OBJECT_ID>2025-217N</OBJECT_ID><CENTER_NAME>EARTH</CENTER_NAME><REF_FRAME>TEME</REF_FRAME><TIME_SYSTEM>UTC</TIME_SYSTEM><MEAN_ELEMENT_THEORY>SGP4</MEAN_ELEMENT_THEORY></metadata><data><meanElements><EPOCH>2025-10-15T13:15:31.510656</EPOCH><MEAN_MOTION>15.35700386</MEAN_MOTION><ECCENTRICITY>.0005314</ECCENTRICITY><INCLINATION>51.8687</INCLINATION><RA_OF_ASC_NODE>345.7669</RA_OF_ASC_NODE><ARG_OF_PERICENTER>161.3825</ARG_OF_PERICENTER><MEAN_ANOMALY>198.7356</MEAN_ANOMALY></meanElements><tleParameters><EPHEMERIS_TYPE>0</EPHEMERIS_TYPE><CLASSIFICATION_TYPE>U</CLASSIFICATION_TYPE><NORAD_CAT_ID>65774</NORAD_CAT_ID><ELEMENT_SET_NO>999</ELEMENT_SET_NO><REV_AT_EPOCH>309</REV_AT_EPOCH><BSTAR>.12899E-2</BSTAR><MEAN_MOTION_DOT>.45377E-3</MEAN_MOTION_DOT><MEAN_MOTION_DDOT>0</MEAN_MOTION_DDOT></tleParameters></data></segment></body></omm>
<omm id="CCSDS_OMM_VERS" version="2.0">
<header><CREATION_DATE/><ORIGINATOR/></header><body><segment><metadata><OBJECT_NAME>KUIPER-00156</OBJECT_NAME><OBJECT_ID>2025-217P</OBJECT_ID><CENTER_NAME>EARTH</CENTER_NAME><REF_FRAME>TEME</REF_FRAME><TIME_SYSTEM>UTC</TIME_SYSTEM><MEAN_ELEMENT_THEORY>SGP4</MEAN_ELEMENT_THEORY></metadata><data><meanElements><EPOCH>2025-10-15T20:42:09.586080</EPOCH><MEAN_MOTION>15.36869167</MEAN_MOTION><ECCENTRICITY>.0002506</ECCENTRICITY><INCLINATION>51.8743</INCLINATION><RA_OF_ASC_NODE>344.0980</RA_OF_ASC_NODE><ARG_OF_PERICENTER>108.0345</ARG_OF_PERICENTER><MEAN_ANOMALY>252.0915</MEAN_ANOMALY></meanElements><tleParameters><EPHEMERIS_TYPE>0</EPHEMERIS_TYPE><CLASSIFICATION_TYPE>U</CLASSIFICATION_TYPE><NORAD_CAT_ID>65775</NORAD_CAT_ID><ELEMENT_SET_NO>999</ELEMENT_SET_NO><REV_AT_EPOCH>314</REV_AT_EPOCH><BSTAR>.92128E-3</BSTAR><MEAN_MOTION_DOT>.33485E-3</MEAN_MOTION_DOT><MEAN_MOTION_DDOT>0</MEAN_MOTION_DDOT></tleParameters></data></segment></body></omm>
<omm id="CCSDS_OMM_VERS" version="2.0">
<header><CREATION_DATE/><ORIGINATOR/></header><body><segment><metadata><OBJECT_NAME>KUIPER-00158</OBJECT_NAME><OBJECT_ID>2025-217Q</OBJECT_ID><CENTER_NAME>EARTH</CENTER_NAME><REF_FRAME>TEME</REF_FRAME><TIME_SYSTEM>UTC</TIME_SYSTEM><MEAN_ELEMENT_THEORY>SGP4</MEAN_ELEMENT_THEORY></metadata><data><meanElements><EPOCH>2025-10-15T16:18:49.023648</EPOCH><MEAN_MOTION>15.35919189</MEAN_MOTION><ECCENTRICITY>.0005026</ECCENTRICITY><INCLINATION>51.8723</INCLINATION><RA_OF_ASC_NODE>345.1219</RA_OF_ASC_NODE><ARG_OF_PERICENTER>157.0820</ARG_OF_PERICENTER><MEAN_ANOMALY>203.0391</MEAN_ANOMALY></meanElements><tleParameters><EPHEMERIS_TYPE>0</EPHEMERIS_TYPE><CLASSIFICATION_TYPE>U</CLASSIFICATION_TYPE><NORAD_CAT_ID>65776</NORAD_CAT_ID><ELEMENT_SET_NO>999</ELEMENT_SET_NO><REV_AT_EPOCH>311</REV_AT_EPOCH><BSTAR>.59142E-3</BSTAR><MEAN_MOTION_DOT>.20675E-3</MEAN_MOTION_DOT><MEAN_MOTION_DDOT>0</MEAN_MOTION_DDOT></tleParameters></data></segment></body></omm>
<omm id="CCSDS_OMM_VERS" version="2.0">
<header><CREATION_DATE/><ORIGINATOR/></header><body><segment><metadata><OBJECT_NAME>KUIPER-00163</OBJECT_NAME><OBJECT_ID>2025-217R</OBJECT_ID><CENTER_NAME>EARTH</CENTER_NAME><REF_FRAME>TEME</REF_FRAME><TIME_SYSTEM>UTC</TIME_SYSTEM><MEAN_ELEMENT_THEORY>SGP4</MEAN_ELEMENT_THEORY></metadata><data><meanElements><EPOCH>2025-10-15T15:00:36.366624</EPOCH><MEAN_MOTION>15.35081971</MEAN_MOTION><ECCENTRICITY>.0007795</ECCENTRICITY><INCLINATION>51.8643</INCLINATION><RA_OF_ASC_NODE>345.4979</RA_OF_ASC_NODE><ARG_OF_PERICENTER>177.2540</ARG_OF_PERICENTER><MEAN_ANOMALY>182.8489</MEAN_ANOMALY></meanElements><tleParameters><EPHEMERIS_TYPE>0</EPHEMERIS_TYPE><CLASSIFICATION_TYPE>U</CLASSIFICATION_TYPE><NORAD_CAT_ID>65777</NORAD_CAT_ID><ELEMENT_SET_NO>999</ELEMENT_SET_NO><REV_AT_EPOCH>310</REV_AT_EPOCH><BSTAR>.57077E-3</BSTAR><MEAN_MOTION_DOT>.19411E-3</MEAN_MOTION_DOT><MEAN_MOTION_DDOT>0</MEAN_MOTION_DDOT></tleParameters></data></segment></body></omm>
<omm id="CCSDS_OMM_VERS" version="2.0">
<header><CREATION_DATE/><ORIGINATOR/></header><body><segment><metadata><OBJECT_NAME>KUIPER-00165</OBJECT_NAME><OBJECT_ID>2025-217S</OBJECT_ID><CENTER_NAME>EARTH</CENTER_NAME><REF_FRAME>TEME</REF_FRAME><TIME_SYSTEM>UTC</TIME_SYSTEM><MEAN_ELEMENT_THEORY>SGP4</MEAN_ELEMENT_THEORY></metadata><data><meanElements><EPOCH>2025-10-15T16:10:56.617824</EPOCH><MEAN_MOTION>15.36333112</MEAN_MOTION><ECCENTRICITY>.0004105</ECCENTRICITY><INCLINATION>51.8726</INCLINATION><RA_OF_ASC_NODE>345.0868</RA_OF_ASC_NODE><ARG_OF_PERICENTER>134.0464</ARG_OF_PERICENTER><MEAN_ANOMALY>226.0861</MEAN_ANOMALY></meanElements><tleParameters><EPHEMERIS_TYPE>0</EPHEMERIS_TYPE><CLASSIFICATION_TYPE>U</CLASSIFICATION_TYPE><NORAD_CAT_ID>65778</NORAD_CAT_ID><ELEMENT_SET_NO>999</ELEMENT_SET_NO><REV_AT_EPOCH>311</REV_AT_EPOCH><BSTAR>.65898E-3</BSTAR><MEAN_MOTION_DOT>.23399E-3</MEAN_MOTION_DOT><MEAN_MOTION_DDOT>0</MEAN_MOTION_DDOT></tleParameters></data></segment></body></omm>
<omm id="CCSDS_OMM_VERS" version="2.0">
<header><CREATION_DATE/><ORIGINATOR/></header><body><segment><metadata><OBJECT_NAME>KUIPER-00166</OBJECT_NAME><OBJECT_ID>2025-217T</OBJECT_ID><CENTER_NAME>EARTH</CENTER_NAME><REF_FRAME>TEME</REF_FRAME><TIME_SYSTEM>UTC</TIME_SYSTEM><MEAN_ELEMENT_THEORY>SGP4</MEAN_ELEMENT_THEORY></metadata><data><meanElements><EPOCH>2025-10-15T20:46:10.159104</EPOCH><MEAN_MOTION>15.36658150</MEAN_MOTION><ECCENTRICITY>.0003371</ECCENTRICITY><INCLINATION>51.8733</INCLINATION><RA_OF_ASC_NODE>344.1182</RA_OF_ASC_NODE><ARG_OF_PERICENTER>113.5908</ARG_OF_PERICENTER><MEAN_ANOMALY>246.5433</MEAN_ANOMALY></meanElements><tleParameters><EPHEMERIS_TYPE>0</EPHEMERIS_TYPE><CLASSIFICATION_TYPE>U</CLASSIFICATION_TYPE><NORAD_CAT_ID>65779</NORAD_CAT_ID><ELEMENT_SET_NO>999</ELEMENT_SET_NO><REV_AT_EPOCH>314</REV_AT_EPOCH><BSTAR>.10116E-2</BSTAR><MEAN_MOTION_DOT>.36571E-3</MEAN_MOTION_DOT><MEAN_MOTION_DDOT>0</MEAN_MOTION_DDOT></tleParameters></data></segment></body></omm>

</ndm>
